

*******************************************************************************
Ephemeris / WWW_USER Wed Mar 13 03:06:39 2024 Pasadena, USA      / Horizons
*******************************************************************************
Target body name: Sun (10)                        {source: DE441}
Center body name: Earth (399)                     {source: DE441}
Center-site name: BODY CENTER
*******************************************************************************
Start time      : A.D. 1996-Feb-13 00:00:00.0000 TDB
Stop  time      : A.D. 1996-Feb-16 00:00:00.0000 TDB
Step-size       : 30 minutes
*******************************************************************************
Center geodetic : 0.0, 0.0, 0.0                   {E-lon(deg),Lat(deg),Alt(km)}
Center cylindric: 0.0, 0.0, 0.0                   {E-lon(deg),Dxy(km),Dz(km)}
Center radii    : 6378.137, 6378.137, 6356.752 km {Equator_a, b, pole_c}
Output units    : KM-S
Calendar mode   : Mixed Julian/Gregorian
Output type     : GEOMETRIC cartesian states
Output format   : 2 (position and velocity)
EOP file        : eop.240312.p240605
EOP coverage    : DATA-BASED 1962-JAN-20 TO 2024-MAR-12. PREDICTS-> 2024-JUN-04
Reference frame : ICRF
*******************************************************************************
            JDTDB,            Calendar Date (TDB),                      X,                      Y,                      Z,                     VX,                     VY,                     VZ,
**************************************************************************************************************************************************************************************************
$$SOE
2450127.375000000, A.D. 1996-Feb-13 21:00:00.0000,  1.202531453990436E+08, -7.869463871979438E+07, -3.411846836874741E+07,  1.779637256846338E+01,  2.235020252111383E+01,  9.690934107852300E+00,
2450127.395833333, A.D. 1996-Feb-13 21:30:00.0000,  1.202851708622558E+08, -7.865440305319044E+07, -3.410102239328216E+07,  1.778747501564290E+01,  2.235609321555802E+01,  9.693482859860234E+00,
2450127.416666667, A.D. 1996-Feb-13 22:00:00.0000,  1.203171803075542E+08, -7.861415678598276E+07, -3.408357183122935E+07,  1.777857488651568E+01,  2.236198096936034E+01,  9.696030316127455E+00,
2450127.437500000, A.D. 1996-Feb-13 22:30:00.0000,  1.203491737303017E+08, -7.857389992346649E+07, -3.406611668492207E+07,  1.776967218143402E+01,  2.236786578026833E+01,  9.698576475797868E+00,
2450127.458333333, A.D. 1996-Feb-13 23:00:00.0000,  1.203811511258620E+08, -7.853363247094087E+07, -3.404865695669495E+07,  1.776076690075848E+01,  2.237374764602181E+01,  9.701121338013076E+00,
2450127.479166667, A.D. 1996-Feb-13 23:30:00.0000,  1.204131124895993E+08, -7.849335443370926E+07, -3.403119264888421E+07,  1.775185904485797E+01,  2.237962656435283E+01,  9.703664901912378E+00,
2450127.500000000, A.D. 1996-Feb-14 00:00:00.0000,  1.204450578168786E+08, -7.845306581707902E+07, -3.401372376382758E+07,  1.774294861410981E+01,  2.238550253298574E+01,  9.706207166632803E+00,
2450127.520833333, A.D. 1996-Feb-14 00:30:00.0000,  1.204769871030654E+08, -7.841276662636171E+07, -3.399625030386436E+07,  1.773403560889987E+01,  2.239137554963719E+01,  9.708748131309100E+00,
2450127.541666667, A.D. 1996-Feb-14 01:00:00.0000,  1.205089003435261E+08, -7.837245686687289E+07, -3.397877227133541E+07,  1.772512002962260E+01,  2.239724561201620E+01,  9.711287795073760E+00,
2450127.562500000, A.D. 1996-Feb-14 01:30:00.0000,  1.205407975336279E+08, -7.833213654393239E+07, -3.396128966858316E+07,  1.771620187668119E+01,  2.240311271782414E+01,  9.713826157057026E+00,
2450127.583333333, A.D. 1996-Feb-14 02:00:00.0000,  1.205726786687383E+08, -7.829180566286406E+07, -3.394380249795160E+07,  1.770728115048761E+01,  2.240897686475479E+01,  9.716363216386913E+00,
2450127.604166667, A.D. 1996-Feb-14 02:30:00.0000,  1.206045437442259E+08, -7.825146422899599E+07, -3.392631076178628E+07,  1.769835785146270E+01,  2.241483805049440E+01,  9.718898972189212E+00,
2450127.625000000, A.D. 1996-Feb-14 03:00:00.0000,  1.206363927554601E+08, -7.821111224766040E+07, -3.390881446243436E+07,  1.768943198003629E+01,  2.242069627272165E+01,  9.721433423587509E+00,
2450127.645833333, A.D. 1996-Feb-14 03:30:00.0000,  1.206682256978108E+08, -7.817074972419369E+07, -3.389131360224453E+07,  1.768050353664728E+01,  2.242655152910773E+01,  9.723966569703199E+00,
2450127.666666667, A.D. 1996-Feb-14 04:00:00.0000,  1.207000425666491E+08, -7.813037666393651E+07, -3.387380818356712E+07,  1.767157252174372E+01,  2.243240381731641E+01,  9.726498409655505E+00,
2450127.687500000, A.D. 1996-Feb-14 04:30:00.0000,  1.207318433573465E+08, -7.808999307223366E+07, -3.385629820875400E+07,  1.766263893578291E+01,  2.243825313500399E+01,  9.729028942561481E+00,
2450127.708333333, A.D. 1996-Feb-14 05:00:00.0000,  1.207636280652756E+08, -7.804959895443422E+07, -3.383878368015866E+07,  1.765370277923150E+01,  2.244409947981941E+01,  9.731558167536035E+00,
2450127.729166667, A.D. 1996-Feb-14 05:30:00.0000,  1.207953966858097E+08, -7.800919431589144E+07, -3.382126460013617E+07,  1.764476405256556E+01,  2.244994284940424E+01,  9.734086083691945E+00,
2450127.750000000, A.D. 1996-Feb-14 06:00:00.0000,  1.208271492143230E+08, -7.796877916196291E+07, -3.380374097104319E+07,  1.763582275627067E+01,  2.245578324139278E+01,  9.736612690139879E+00,
2450127.770833333, A.D. 1996-Feb-14 06:30:00.0000,  1.208588856461908E+08, -7.792835349801043E+07, -3.378621279523803E+07,  1.762687889084206E+01,  2.246162065341202E+01,  9.739137985988394E+00,
2450127.791666667, A.D. 1996-Feb-14 07:00:00.0000,  1.208906059767889E+08, -7.788791732940003E+07, -3.376868007508054E+07,  1.761793245678463E+01,  2.246745508308174E+01,  9.741661970343976E+00,
2450127.812500000, A.D. 1996-Feb-14 07:30:00.0000,  1.209223102014943E+08, -7.784747066150218E+07, -3.375114281293222E+07,  1.760898345461310E+01,  2.247328652801452E+01,  9.744184642311041E+00,
2450127.833333333, A.D. 1996-Feb-14 08:00:00.0000,  1.209539983156849E+08, -7.780701349969147E+07, -3.373360101115618E+07,  1.760003188485206E+01,  2.247911498581585E+01,  9.746706000991951E+00,
2450127.854166667, A.D. 1996-Feb-14 08:30:00.0000,  1.209856703147396E+08, -7.776654584934695E+07, -3.371605467211716E+07,  1.759107774803610E+01,  2.248494045408405E+01,  9.749226045487049E+00,
2450127.875000000, A.D. 1996-Feb-14 09:00:00.0000,  1.210173261940380E+08, -7.772606771585192E+07, -3.369850379818147E+07,  1.758212104470984E+01,  2.249076293041043E+01,  9.751744774894656E+00,
2450127.895833333, A.D. 1996-Feb-14 09:30:00.0000,  1.210489659489609E+08, -7.768557910459410E+07, -3.368094839171713E+07,  1.757316177542812E+01,  2.249658241237929E+01,  9.754262188311102E+00,
2450127.916666667, A.D. 1996-Feb-14 10:00:00.0000,  1.210805895748903E+08, -7.764508002096544E+07, -3.366338845509370E+07,  1.756419994075598E+01,  2.250239889756795E+01,  9.756778284830744E+00,
2450127.937500000, A.D. 1996-Feb-14 10:30:00.0000,  1.211121970672088E+08, -7.760457047036237E+07, -3.364582399068242E+07,  1.755523554126884E+01,  2.250821238354686E+01,  9.759293063545977E+00,
2450127.958333333, A.D. 1996-Feb-14 11:00:00.0000,  1.211437884213003E+08, -7.756405045818566E+07, -3.362825500085616E+07,  1.754626857755253E+01,  2.251402286787958E+01,  9.761806523547262E+00,
2450127.979166667, A.D. 1996-Feb-14 11:30:00.0000,  1.211753636325498E+08, -7.752351998984046E+07, -3.361068148798943E+07,  1.753729905020342E+01,  2.251983034812286E+01,  9.764318663923147E+00,
2450128.000000000, A.D. 1996-Feb-14 12:00:00.0000,  1.212069226963432E+08, -7.748297907073632E+07, -3.359310345445837E+07,  1.752832695982848E+01,  2.252563482182672E+01,  9.766829483760274E+00,
2450128.020833333, A.D. 1996-Feb-14 12:30:00.0000,  1.212384656080677E+08, -7.744242770628728E+07, -3.357552090264077E+07,  1.751935230704542E+01,  2.253143628653445E+01,  9.769338982143415E+00,
2450128.041666667, A.D. 1996-Feb-14 13:00:00.0000,  1.212699923631115E+08, -7.740186590191169E+07, -3.355793383491607E+07,  1.751037509248271E+01,  2.253723473978270E+01,  9.771847158155486E+00,
2450128.062500000, A.D. 1996-Feb-14 13:30:00.0000,  1.213015029568640E+08, -7.736129366303241E+07, -3.354034225366538E+07,  1.750139531677971E+01,  2.254303017910152E+01,  9.774354010877573E+00,
2450128.083333333, A.D. 1996-Feb-14 14:00:00.0000,  1.213329973847156E+08, -7.732071099507678E+07, -3.352274616127144E+07,  1.749241298058679E+01,  2.254882260201443E+01,  9.776859539388932E+00,
2450128.104166667, A.D. 1996-Feb-14 14:30:00.0000,  1.213644756420582E+08, -7.728011790347649E+07, -3.350514556011866E+07,  1.748342808456536E+01,  2.255461200603848E+01,  9.779363742767051E+00,
2450128.125000000, A.D. 1996-Feb-14 15:00:00.0000,  1.213959377242846E+08, -7.723951439366785E+07, -3.348754045259310E+07,  1.747444062938799E+01,  2.256039838868427E+01,  9.781866620087634E+00,
2450128.145833333, A.D. 1996-Feb-14 15:30:00.0000,  1.214273836267889E+08, -7.719890047109155E+07, -3.346993084108253E+07,  1.746545061573851E+01,  2.256618174745605E+01,  9.784368170424649E+00,
2450128.166666667, A.D. 1996-Feb-14 16:00:00.0000,  1.214588133449666E+08, -7.715827614119284E+07, -3.345231672797633E+07,  1.745645804431206E+01,  2.257196207985179E+01,  9.786868392850334E+00,
2450128.187500000, A.D. 1996-Feb-14 16:30:00.0000,  1.214902268742142E+08, -7.711764140942141E+07, -3.343469811566557E+07,  1.744746291581523E+01,  2.257773938336319E+01,  9.789367286435239E+00,
2450128.208333333, A.D. 1996-Feb-14 17:00:00.0000,  1.215216242099297E+08, -7.707699628123157E+07, -3.341707500654303E+07,  1.743846523096610E+01,  2.258351365547579E+01,  9.791864850248222E+00,
2450128.229166667, A.D. 1996-Feb-14 17:30:00.0000,  1.215530053475123E+08, -7.703634076208207E+07, -3.339944740300311E+07,  1.742946499049437E+01,  2.258928489366902E+01,  9.794361083356510E+00,
